[{"OBJECT_NAME":"HULIANWANG DIGUI-113","OBJECT_ID":"2025-285J","EPOCH":"2026-03-03T15:10:55.441632","MEAN_MOTION":13.29331347,"ECCENTRICITY":4.26e-6,"INCLINATION":50.0097,"RA_OF_ASC_NODE":164.2374,"ARG_OF_PERICENTER":332.4232,"MEAN_ANOMALY":27.6638,"EPHEMERIS_TYPE":0,"CLASSIFICATION_TYPE":"U","NORAD_CAT_ID":66923,"ELEMENT_SET_NO":999,"REV_AT_EPOCH":1202,"BSTAR":-0.0001808107,"MEAN_MOTION_DOT":-2.08e-6,"MEAN_MOTION_DDOT":0},{"OBJECT_NAME":"HULIANWANG DIGUI-114","OBJECT_ID":"2025-287A","EPOCH":"2026-03-03T14:25:44.819616","MEAN_MOTION":13.24415504,"ECCENTRICITY":0.00019815,"INCLINATION":86.4977,"RA_OF_ASC_NODE":318.0661,"ARG_OF_PERICENTER":81.1722,"MEAN_ANOMALY":278.9636,"EPHEMERIS_TYPE":0,"CLASSIFICATION_TYPE":"U","NORAD_CAT_ID":66953,"ELEMENT_SET_NO":999,"REV_AT_EPOCH":1136,"BSTAR":0.00010442627,"MEAN_MOTION_DOT":5.9e-7,"MEAN_MOTION_DDOT":0},{"OBJECT_NAME":"HULIANWANG DIGUI-115","OBJECT_ID":"2025-287B","EPOCH":"2026-03-03T16:03:37.952064","MEAN_MOTION":13.24415581,"ECCENTRICITY":0.00020623,"INCLINATION":86.4993,"RA_OF_ASC_NODE":318.0519,"ARG_OF_PERICENTER":80.7381,"MEAN_ANOMALY":279.3987,"EPHEMERIS_TYPE":0,"CLASSIFICATION_TYPE":"U","NORAD_CAT_ID":66954,"ELEMENT_SET_NO":999,"REV_AT_EPOCH":1137,"BSTAR":0.00013310207,"MEAN_MOTION_DOT":7.2e-7,"MEAN_MOTION_DDOT":0},{"OBJECT_NAME":"HULIANWANG DIGUI-116","OBJECT_ID":"2025-287C","EPOCH":"2026-03-03T15:52:45.928416","MEAN_MOTION":13.24415668,"ECCENTRICITY":0.00020605,"INCLINATION":86.4933,"RA_OF_ASC_NODE":317.992,"ARG_OF_PERICENTER":80.7103,"MEAN_ANOMALY":279.4264,"EPHEMERIS_TYPE":0,"CLASSIFICATION_TYPE":"U","NORAD_CAT_ID":66955,"ELEMENT_SET_NO":999,"REV_AT_EPOCH":1137,"BSTAR":0.00017474766,"MEAN_MOTION_DOT":9.0e-7,"MEAN_MOTION_DDOT":0},{"OBJECT_NAME":"HULIANWANG DIGUI-117","OBJECT_ID":"2025-287D","EPOCH":"2026-03-03T15:41:56.441472","MEAN_MOTION":13.2441376,"ECCENTRICITY":0.00013827,"INCLINATION":86.4993,"RA_OF_ASC_NODE":318.0453,"ARG_OF_PERICENTER":23.1498,"MEAN_ANOMALY":336.9698,"EPHEMERIS_TYPE":0,"CLASSIFICATION_TYPE":"U","NORAD_CAT_ID":66956,"ELEMENT_SET_NO":999,"REV_AT_EPOCH":1137,"BSTAR":0.0001807844,"MEAN_MOTION_DOT":9.2e-7,"MEAN_MOTION_DDOT":0},{"OBJECT_NAME":"HULIANWANG DIGUI-118","OBJECT_ID":"2025-287E","EPOCH":"2026-03-03T15:31:02.434080","MEAN_MOTION":13.24415063,"ECCENTRICITY":0.00020466,"INCLINATION":86.4969,"RA_OF_ASC_NODE":318.0195,"ARG_OF_PERICENTER":80.7364,"MEAN_ANOMALY":279.4002,"EPHEMERIS_TYPE":0,"CLASSIFICATION_TYPE":"U","NORAD_CAT_ID":66957,"ELEMENT_SET_NO":999,"REV_AT_EPOCH":1137,"BSTAR":0.00019766582,"MEAN_MOTION_DOT":9.9e-7,"MEAN_MOTION_DDOT":0},{"OBJECT_NAME":"HULIANWANG DIGUI-119","OBJECT_ID":"2025-295A","EPOCH":"2026-03-03T01:44:58.227360","MEAN_MOTION":13.51029834,"ECCENTRICITY":6.087e-5,"INCLINATION":50.0099,"RA_OF_ASC_NODE":47.5635,"ARG_OF_PERICENTER":106.8761,"MEAN_ANOMALY":253.2188,"EPHEMERIS_TYPE":0,"CLASSIFICATION_TYPE":"U","NORAD_CAT_ID":67059,"ELEMENT_SET_NO":999,"REV_AT_EPOCH":1136,"BSTAR":0.00010846151,"MEAN_MOTION_DOT":-6.1e-7,"MEAN_MOTION_DDOT":0},{"OBJECT_NAME":"HULIANWANG DIGUI-120","OBJECT_ID":"2025-295B","EPOCH":"2026-03-03T08:32:41.337600","MEAN_MOTION":13.50762668,"ECCENTRICITY":0.00010992,"INCLINATION":50.0051,"RA_OF_ASC_NODE":46.4219,"ARG_OF_PERICENTER":320.3408,"MEAN_ANOMALY":39.7393,"EPHEMERIS_TYPE":0,"CLASSIFICATION_TYPE":"U","NORAD_CAT_ID":67060,"ELEMENT_SET_NO":999,"REV_AT_EPOCH":1140,"BSTAR":0.00010975688,"MEAN_MOTION_DOT":-6.1e-7,"MEAN_MOTION_DDOT":0},{"OBJECT_NAME":"HULIANWANG DIGUI-121","OBJECT_ID":"2025-295C","EPOCH":"2026-03-03T01:36:12.832416","MEAN_MOTION":13.5135717,"ECCENTRICITY":0.00019481,"INCLINATION":49.9999,"RA_OF_ASC_NODE":47.5304,"ARG_OF_PERICENTER":282.1047,"MEAN_ANOMALY":77.9616,"EPHEMERIS_TYPE":0,"CLASSIFICATION_TYPE":"U","NORAD_CAT_ID":67061,"ELEMENT_SET_NO":999,"REV_AT_EPOCH":1136,"BSTAR":0.00010908912,"MEAN_MOTION_DOT":-6.1e-7,"MEAN_MOTION_DDOT":0},{"OBJECT_NAME":"HULIANWANG DIGUI-122","OBJECT_ID":"2025-295D","EPOCH":"2026-03-03T01:16:56.655264","MEAN_MOTION":13.51483454,"ECCENTRICITY":0.00013041,"INCLINATION":50.008,"RA_OF_ASC_NODE":47.4834,"ARG_OF_PERICENTER":353.6518,"MEAN_ANOMALY":6.4347,"EPHEMERIS_TYPE":0,"CLASSIFICATION_TYPE":"U","NORAD_CAT_ID":67062,"ELEMENT_SET_NO":999,"REV_AT_EPOCH":1136,"BSTAR":0.00010839249,"MEAN_MOTION_DOT":-6.1e-7,"MEAN_MOTION_DDOT":0},{"OBJECT_NAME":"HULIANWANG DIGUI-123","OBJECT_ID":"2025-295E","EPOCH":"2026-03-03T04:39:39.509856","MEAN_MOTION":13.51163893,"ECCENTRICITY":7.423e-5,"INCLINATION":50.0058,"RA_OF_ASC_NODE":46.9026,"ARG_OF_PERICENTER":273.8979,"MEAN_ANOMALY":86.1818,"EPHEMERIS_TYPE":0,"CLASSIFICATION_TYPE":"U","NORAD_CAT_ID":67063,"ELEMENT_SET_NO":999,"REV_AT_EPOCH":1138,"BSTAR":0.00013716136,"MEAN_MOTION_DOT":-4.2e-7,"MEAN_MOTION_DDOT":0},{"OBJECT_NAME":"HULIANWANG DIGUI-124","OBJECT_ID":"2025-295F","EPOCH":"2026-03-03T09:50:45.278592","MEAN_MOTION":13.51154958,"ECCENTRICITY":8.856e-5,"INCLINATION":49.9984,"RA_OF_ASC_NODE":46.0039,"ARG_OF_PERICENTER":17.49,"MEAN_ANOMALY":342.6012,"EPHEMERIS_TYPE":0,"CLASSIFICATION_TYPE":"U","NORAD_CAT_ID":67064,"ELEMENT_SET_NO":999,"REV_AT_EPOCH":1141,"BSTAR":0.00011189592,"MEAN_MOTION_DOT":-5.9e-7,"MEAN_MOTION_DDOT":0},{"OBJECT_NAME":"HULIANWANG DIGUI-125","OBJECT_ID":"2025-295G","EPOCH":"2026-03-03T11:27:49.639104","MEAN_MOTION":13.51198599,"ECCENTRICITY":0.00036527,"INCLINATION":49.9862,"RA_OF_ASC_NODE":45.6904,"ARG_OF_PERICENTER":57.5555,"MEAN_ANOMALY":302.568,"EPHEMERIS_TYPE":0,"CLASSIFICATION_TYPE":"U","NORAD_CAT_ID":67065,"ELEMENT_SET_NO":999,"REV_AT_EPOCH":1142,"BSTAR":0.00010945005,"MEAN_MOTION_DOT":-6.0e-7,"MEAN_MOTION_DDOT":0},{"OBJECT_NAME":"HULIANWANG DIGUI-126","OBJECT_ID":"2025-295H","EPOCH":"2026-03-03T07:44:21.705216","MEAN_MOTION":13.51245278,"ECCENTRICITY":0.00014365,"INCLINATION":49.9966,"RA_OF_ASC_NODE":46.1982,"ARG_OF_PERICENTER":46.9301,"MEAN_ANOMALY":313.17,"EPHEMERIS_TYPE":0,"CLASSIFICATION_TYPE":"U","NORAD_CAT_ID":67066,"ELEMENT_SET_NO":999,"REV_AT_EPOCH":1140,"BSTAR":7.9663631e-5,"MEAN_MOTION_DOT":-8.0e-7,"MEAN_MOTION_DDOT":0},{"OBJECT_NAME":"HULIANWANG DIGUI-127","OBJECT_ID":"2025-295J","EPOCH":"2026-03-03T07:29:10.718304","MEAN_MOTION":13.51077062,"ECCENTRICITY":0.00014578,"INCLINATION":50.0059,"RA_OF_ASC_NODE":46.1612,"ARG_OF_PERICENTER":19.0151,"MEAN_ANOMALY":341.0785,"EPHEMERIS_TYPE":0,"CLASSIFICATION_TYPE":"U","NORAD_CAT_ID":67067,"ELEMENT_SET_NO":999,"REV_AT_EPOCH":1140,"BSTAR":-0.00028658384,"MEAN_MOTION_DOT":-3.18e-6,"MEAN_MOTION_DDOT":0},{"OBJECT_NAME":"HULIANWANG DIGUI-128","OBJECT_ID":"2025-311A","EPOCH":"2026-03-03T08:20:00.446496","MEAN_MOTION":13.35891953,"ECCENTRICITY":0.00023529,"INCLINATION":50.0101,"RA_OF_ASC_NODE":135.2234,"ARG_OF_PERICENTER":353.5774,"MEAN_ANOMALY":6.5071,"EPHEMERIS_TYPE":0,"CLASSIFICATION_TYPE":"U","NORAD_CAT_ID":67236,"ELEMENT_SET_NO":999,"REV_AT_EPOCH":926,"BSTAR":0.00012954281,"MEAN_MOTION_DOT":-6.0e-7,"MEAN_MOTION_DDOT":0}]
