HULIANWANG DIGUI-113    
1 66923U 25285J   26062.63258613 -.00000208  00000+0 -18081-3 0  9990
2 66923  50.0097 164.2374 0000042 332.4232  27.6638 13.29331347 12024
HULIANWANG DIGUI-114    
1 66953U 25287A   26062.60121319  .00000059  00000+0  10443-3 0  9990
2 66953  86.4977 318.0661 0001981  81.1722 278.9636 13.24415504 11368
HULIANWANG DIGUI-115    
1 66954U 25287B   26062.66918926  .00000072  00000+0  13310-3 0  9996
2 66954  86.4993 318.0519 0002062  80.7381 279.3987 13.24415581 11376
HULIANWANG DIGUI-116    
1 66955U 25287C   26062.66164269  .00000090  00000+0  17475-3 0  9996
2 66955  86.4933 317.9920 0002060  80.7103 279.4264 13.24415668 11370
HULIANWANG DIGUI-117    
1 66956U 25287D   26062.65412548  .00000092  00000+0  18078-3 0  9994
2 66956  86.4993 318.0453 0001382  23.1498 336.9698 13.24413760 11375
HULIANWANG DIGUI-118    
1 66957U 25287E   26062.64655595  .00000099  00000+0  19767-3 0  9998
2 66957  86.4969 318.0195 0002046  80.7364 279.4002 13.24415063 11379
HULIANWANG DIGUI-119    
1 67059U 25295A   26062.07289615 -.00000061  00000+0  10846-3 0  9993
2 67059  50.0099  47.5635 0000608 106.8761 253.2188 13.51029834 11361
HULIANWANG DIGUI-120    
1 67060U 25295B   26062.35603400 -.00000061  00000+0  10976-3 0  9992
2 67060  50.0051  46.4219 0001099 320.3408  39.7393 13.50762668 11401
HULIANWANG DIGUI-121    
1 67061U 25295C   26062.06681519 -.00000061  00000+0  10909-3 0  9994
2 67061  49.9999  47.5304 0001948 282.1047  77.9616 13.51357170 11360
HULIANWANG DIGUI-122    
1 67062U 25295D   26062.05343351 -.00000061  00000+0  10839-3 0  9995
2 67062  50.0080  47.4834 0001304 353.6518   6.4347 13.51483454 11368
HULIANWANG DIGUI-123    
1 67063U 25295E   26062.19420729 -.00000042  00000+0  13716-3 0  9992
2 67063  50.0058  46.9026 0000742 273.8979  86.1818 13.51163893 11382
HULIANWANG DIGUI-124    
1 67064U 25295F   26062.41024628 -.00000059  00000+0  11190-3 0  9998
2 67064  49.9984  46.0039 0000885  17.4900 342.6012 13.51154958 11419
HULIANWANG DIGUI-125    
1 67065U 25295G   26062.47765786 -.00000060  00000+0  10945-3 0  9991
2 67065  49.9862  45.6904 0003652  57.5555 302.5680 13.51198599 11423
HULIANWANG DIGUI-126    
1 67066U 25295H   26062.32247344 -.00000080  00000+0  79664-4 0  9997
2 67066  49.9966  46.1982 0001436  46.9301 313.1700 13.51245278 11406
HULIANWANG DIGUI-127    
1 67067U 25295J   26062.31192961 -.00000318  00000+0 -28658-3 0  9992
2 67067  50.0059  46.1612 0001457  19.0151 341.0785 13.51077062 11407
HULIANWANG DIGUI-128    
1 67236U 25311A   26062.34722739 -.00000060  00000+0  12954-3 0  9999
2 67236  50.0101 135.2234 0002352 353.5774   6.5071 13.35891953  9262
